start=new Date('2022-01-16T00:00:00.000Z').valueOf();
sats=[{"PERIAPSIS":"545.276","INCLINATION":"53.0631","TLE_LINE2":"2 46126  53.0631 272.3069 0002760  68.1277 292.0005 15.06408616 77902","ELEMENT_SET_NO":"999","SITE":"AFETR","OBJECT_ID":"2020-057K","MEAN_MOTION":"15.06408616","CLASSIFICATION_TYPE":"U","MEAN_ANOMALY":"292.0005","GP_ID":"193944938","EPHEMERIS_TYPE":"0","COUNTRY_CODE":"US","RCS_SIZE":"LARGE","OBJECT_NAME":"STARLINK-1619","DECAY_DATE":null,"REF_FRAME":"TEME","CENTER_NAME":"EARTH","ARG_OF_PERICENTER":"68.1277","MEAN_ELEMENT_THEORY":"SGP4","BSTAR":"0.00019111000000","TLE_LINE1":"1 46126U 20057K   22015.88874755  .00002566  00000-0  19111-3 0  9990","RA_OF_ASC_NODE":"272.3069","APOAPSIS":"549.099","LAUNCH_DATE":"2020-08-18","MEAN_MOTION_DOT":"0.00002566","REV_AT_EPOCH":"7790","EPOCH":"2022-01-15T21:19:47.788320","SEMIMAJOR_AXIS":"6925.322","NORAD_CAT_ID":"46126","ECCENTRICITY":"0.00027600","OBJECT_TYPE":"PAYLOAD","TIME_SYSTEM":"UTC","PERIOD":"95.592","FILE":"3274074","MEAN_MOTION_DDOT":"0.0000000000000"},{"MEAN_ANOMALY":"293.7803","GP_ID":"193945188","COUNTRY_CODE":"US","EPHEMERIS_TYPE":"0","RCS_SIZE":"LARGE","OBJECT_NAME":"STARLINK-1621","PERIAPSIS":"545.593","TLE_LINE2":"2 46127  53.0526 252.3784 0002308  66.3428 293.7803 15.06407117 78173","INCLINATION":"53.0526","ELEMENT_SET_NO":"999","OBJECT_ID":"2020-057L","SITE":"AFETR","CLASSIFICATION_TYPE":"U","MEAN_MOTION":"15.06407117","NORAD_CAT_ID":"46127","SEMIMAJOR_AXIS":"6925.327","EPOCH":"2022-01-15T21:06:32.069376","OBJECT_TYPE":"PAYLOAD","ECCENTRICITY":"0.00023080","TIME_SYSTEM":"UTC","MEAN_MOTION_DDOT":"0.0000000000000","FILE":"3274074","PERIOD":"95.592","CENTER_NAME":"EARTH","DECAY_DATE":null,"REF_FRAME":"TEME","MEAN_ELEMENT_THEORY":"SGP4","ARG_OF_PERICENTER":"66.3428","TLE_LINE1":"1 46127U 20057L   22015.87953784  .00001622  00000-0  12773-3 0  9999","BSTAR":"0.00012773000000","APOAPSIS":"548.790","LAUNCH_DATE":"2020-08-18","MEAN_MOTION_DOT":"0.00001622","RA_OF_ASC_NODE":"252.3784","REV_AT_EPOCH":"7817"},{"MEAN_ANOMALY":"293.9237","GP_ID":"193945440","COUNTRY_CODE":"US","EPHEMERIS_TYPE":"0","RCS_SIZE":"LARGE","OBJECT_NAME":"STARLINK-1622","PERIAPSIS":"545.440","TLE_LINE2":"2 46128  53.0547 232.5600 0002526  66.2016 293.9237 15.06407938 78453","INCLINATION":"53.0547","ELEMENT_SET_NO":"999","SITE":"AFETR","OBJECT_ID":"2020-057M","CLASSIFICATION_TYPE":"U","MEAN_MOTION":"15.06407938","NORAD_CAT_ID":"46128","SEMIMAJOR_AXIS":"6925.324","EPOCH":"2022-01-15T20:10:48.434304","OBJECT_TYPE":"PAYLOAD","ECCENTRICITY":"0.00025260","TIME_SYSTEM":"UTC","MEAN_MOTION_DDOT":"0.0000000000000","FILE":"3274074","PERIOD":"95.592","CENTER_NAME":"EARTH","REF_FRAME":"TEME","DECAY_DATE":null,"MEAN_ELEMENT_THEORY":"SGP4","ARG_OF_PERICENTER":"66.2016","TLE_LINE1":"1 46128U 20057M   22015.84083836  .00001241  00000-0  10219-3 0  9999","BSTAR":"0.00010219000000","MEAN_MOTION_DOT":"0.00001241","LAUNCH_DATE":"2020-08-18","APOAPSIS":"548.939","RA_OF_ASC_NODE":"232.5600","REV_AT_EPOCH":"7845"},{"ARG_OF_PERICENTER":"70.5534","MEAN_ELEMENT_THEORY":"SGP4","REF_FRAME":"TEME","DECAY_DATE":null,"CENTER_NAME":"EARTH","REV_AT_EPOCH":"7846","BSTAR":"0.00039518000000","TLE_LINE1":"1 46129U 20057N   22015.88138349  .00005612  00000-0  39518-3 0  9993","RA_OF_ASC_NODE":"232.3778","APOAPSIS":"548.667","LAUNCH_DATE":"2020-08-18","MEAN_MOTION_DOT":"0.00005612","EPOCH":"2022-01-15T21:09:11.533536","SEMIMAJOR_AXIS":"6925.290","NORAD_CAT_ID":"46129","ECCENTRICITY":"0.00021830","OBJECT_TYPE":"PAYLOAD","PERIOD":"95.591","MEAN_MOTION_DDOT":"0.0000000000000","FILE":"3274074","TIME_SYSTEM":"UTC","INCLINATION":"53.0533","TLE_LINE2":"2 46129  53.0533 232.3778 0002183  70.5534 289.5690 15.06419167 78467","PERIAPSIS":"545.643","SITE":"AFETR","OBJECT_ID":"2020-057N","MEAN_MOTION":"15.06419167","CLASSIFICATION_TYPE":"U","ELEMENT_SET_NO":"999","GP_ID":"193946184","MEAN_ANOMALY":"289.5690","RCS_SIZE":"LARGE","OBJECT_NAME":"STARLINK-1623","EPHEMERIS_TYPE":"0","COUNTRY_CODE":"US"},{"TIME_SYSTEM":"UTC","FILE":"3274074","MEAN_MOTION_DDOT":"0.0000000000000","PERIOD":"95.592","OBJECT_TYPE":"PAYLOAD","ECCENTRICITY":"0.00022330","NORAD_CAT_ID":"46130","SEMIMAJOR_AXIS":"6925.319","EPOCH":"2022-01-15T21:56:57.419808","LAUNCH_DATE":"2020-08-18","APOAPSIS":"548.730","MEAN_MOTION_DOT":"0.00001779","RA_OF_ASC_NODE":"232.2186","TLE_LINE1":"1 46130U 20057P   22015.91455347  .00001779  00000-0  13826-3 0  9993","BSTAR":"0.00013826000000","REV_AT_EPOCH":"7971","CENTER_NAME":"EARTH","DECAY_DATE":null,"REF_FRAME":"TEME","MEAN_ELEMENT_THEORY":"SGP4","ARG_OF_PERICENTER":"75.8448","COUNTRY_CODE":"US","EPHEMERIS_TYPE":"0","OBJECT_NAME":"STARLINK-1624","RCS_SIZE":"LARGE","MEAN_ANOMALY":"284.2789","GP_ID":"193944439","ELEMENT_SET_NO":"999","CLASSIFICATION_TYPE":"U","MEAN_MOTION":"15.06409702","SITE":"AFETR","OBJECT_ID":"2020-057P","PERIAPSIS":"545.637","TLE_LINE2":"2 46130  53.0539 232.2186 0002233  75.8448 284.2789 15.06409702 79719","INCLINATION":"53.0539"},{"CLASSIFICATION_TYPE":"U","MEAN_MOTION":"15.06412907","OBJECT_ID":"2020-057Q","SITE":"AFETR","ELEMENT_SET_NO":"999","TLE_LINE2":"2 46131  53.0548 252.1717 0002401  71.9833 288.1417 15.06412907 79445","INCLINATION":"53.0548","PERIAPSIS":"545.511","OBJECT_NAME":"STARLINK-1625","RCS_SIZE":"LARGE","COUNTRY_CODE":"US","EPHEMERIS_TYPE":"0","GP_ID":"193944689","MEAN_ANOMALY":"288.1417","REV_AT_EPOCH":"7944","MEAN_MOTION_DOT":"0.00001180","LAUNCH_DATE":"2020-08-18","APOAPSIS":"548.837","RA_OF_ASC_NODE":"252.1717","TLE_LINE1":"1 46131U 20057Q   22015.92744954  .00001180  00000-0  98070-4 0  9991","BSTAR":"0.00009807000000","MEAN_ELEMENT_THEORY":"SGP4","ARG_OF_PERICENTER":"71.9833","CENTER_NAME":"EARTH","DECAY_DATE":null,"REF_FRAME":"TEME","FILE":"3274074","MEAN_MOTION_DDOT":"0.0000000000000","PERIOD":"95.591","TIME_SYSTEM":"UTC","OBJECT_TYPE":"PAYLOAD","ECCENTRICITY":"0.00024010","SEMIMAJOR_AXIS":"6925.309","NORAD_CAT_ID":"46131","EPOCH":"2022-01-15T22:15:31.640256"},{"COUNTRY_CODE":"US","EPHEMERIS_TYPE":"0","RCS_SIZE":"LARGE","OBJECT_NAME":"STARLINK-1630","MEAN_ANOMALY":"296.7170","GP_ID":"193914812","ELEMENT_SET_NO":"999","SITE":"AFETR","OBJECT_ID":"2020-057R","CLASSIFICATION_TYPE":"U","MEAN_MOTION":"15.06395789","PERIAPSIS":"545.798","TLE_LINE2":"2 46132  53.0550 274.3765 0002062  63.4030 296.7170 15.06395789 79096","INCLINATION":"53.0550","TIME_SYSTEM":"UTC","FILE":"3273762","MEAN_MOTION_DDOT":"0.0000000000000","PERIOD":"95.592","SEMIMAJOR_AXIS":"6925.361","NORAD_CAT_ID":"46132","EPOCH":"2022-01-15T10:26:57.564672","OBJECT_TYPE":"PAYLOAD","ECCENTRICITY":"0.00020620","TLE_LINE1":"1 46132U 20057R   22015.43538848  .00001169  00000-0  97372-4 0  9992","BSTAR":"0.00009737200000","LAUNCH_DATE":"2020-08-18","MEAN_MOTION_DOT":"0.00001169","APOAPSIS":"548.654","RA_OF_ASC_NODE":"274.3765","REV_AT_EPOCH":"7909","CENTER_NAME":"EARTH","DECAY_DATE":null,"REF_FRAME":"TEME","MEAN_ELEMENT_THEORY":"SGP4","ARG_OF_PERICENTER":"63.4030"},{"TIME_SYSTEM":"UTC","MEAN_MOTION_DDOT":"0.0000000000000","FILE":"3274074","PERIOD":"95.592","OBJECT_TYPE":"PAYLOAD","ECCENTRICITY":"0.00019200","NORAD_CAT_ID":"46133","SEMIMAJOR_AXIS":"6925.318","EPOCH":"2022-01-15T20:00:12.113856","MEAN_MOTION_DOT":"0.00003234","LAUNCH_DATE":"2020-08-18","APOAPSIS":"548.513","RA_OF_ASC_NODE":"232.5783","TLE_LINE1":"1 46133U 20057S   22015.83347354  .00003234  00000-0  23582-3 0  9993","BSTAR":"0.00023582000000","REV_AT_EPOCH":"7970","CENTER_NAME":"EARTH","REF_FRAME":"TEME","DECAY_DATE":null,"MEAN_ELEMENT_THEORY":"SGP4","ARG_OF_PERICENTER":"79.8300","COUNTRY_CODE":"US","EPHEMERIS_TYPE":"0","OBJECT_NAME":"STARLINK-1637","RCS_SIZE":"LARGE","MEAN_ANOMALY":"280.2906","GP_ID":"193945685","ELEMENT_SET_NO":"999","CLASSIFICATION_TYPE":"U","MEAN_MOTION":"15.06409972","OBJECT_ID":"2020-057S","SITE":"AFETR","PERIAPSIS":"545.853","TLE_LINE2":"2 46133  53.0518 232.5783 0001920  79.8300 280.2906 15.06409972 79703","INCLINATION":"53.0518"},{"PERIAPSIS":"545.495","TLE_LINE2":"2 46134  53.0533 232.5632 0002489  69.8489 290.2768 15.06398189 78457","INCLINATION":"53.0533","ELEMENT_SET_NO":"999","CLASSIFICATION_TYPE":"U","MEAN_MOTION":"15.06398189","SITE":"AFETR","OBJECT_ID":"2020-057T","MEAN_ANOMALY":"290.2768","GP_ID":"193944939","COUNTRY_CODE":"US","EPHEMERIS_TYPE":"0","OBJECT_NAME":"STARLINK-1638","RCS_SIZE":"LARGE","CENTER_NAME":"EARTH","REF_FRAME":"TEME","DECAY_DATE":null,"MEAN_ELEMENT_THEORY":"SGP4","ARG_OF_PERICENTER":"69.8489","MEAN_MOTION_DOT":"0.00000298","LAUNCH_DATE":"2020-08-18","APOAPSIS":"548.943","RA_OF_ASC_NODE":"232.5632","TLE_LINE1":"1 46134U 20057T   22015.83715805  .00000298  00000-0  38905-4 0  9997","BSTAR":"0.00003890500000","REV_AT_EPOCH":"7845","OBJECT_TYPE":"PAYLOAD","ECCENTRICITY":"0.00024890","SEMIMAJOR_AXIS":"6925.354","NORAD_CAT_ID":"46134","EPOCH":"2022-01-15T20:05:30.455520","TIME_SYSTEM":"UTC","MEAN_MOTION_DDOT":"0.0000000000000","FILE":"3274074","PERIOD":"95.592"},{"ELEMENT_SET_NO":"999","CLASSIFICATION_TYPE":"U","MEAN_MOTION":"15.06406826","OBJECT_ID":"2020-057U","SITE":"AFETR","PERIAPSIS":"545.503","TLE_LINE2":"2 46135  53.0540 232.2017 0002440  71.3184 288.8070 15.06406826 78465","INCLINATION":"53.0540","COUNTRY_CODE":"US","EPHEMERIS_TYPE":"0","OBJECT_NAME":"STARLINK-1639","RCS_SIZE":"LARGE","MEAN_ANOMALY":"288.8070","GP_ID":"193945189","LAUNCH_DATE":"2020-08-18","APOAPSIS":"548.882","MEAN_MOTION_DOT":"0.00002179","RA_OF_ASC_NODE":"232.2017","TLE_LINE1":"1 46135U 20057U   22015.91824946  .00002179  00000-0  16510-3 0  9991","BSTAR":"0.00016510000000","REV_AT_EPOCH":"7846","CENTER_NAME":"EARTH","REF_FRAME":"TEME","DECAY_DATE":null,"MEAN_ELEMENT_THEORY":"SGP4","ARG_OF_PERICENTER":"71.3184","TIME_SYSTEM":"UTC","MEAN_MOTION_DDOT":"0.0000000000000","FILE":"3274074","PERIOD":"95.592","OBJECT_TYPE":"PAYLOAD","ECCENTRICITY":"0.00024400","SEMIMAJOR_AXIS":"6925.328","NORAD_CAT_ID":"46135","EPOCH":"2022-01-15T22:02:16.753344"}];
